0 FENGYUN 1C DEB
1 31552U 99025BYT 13281.09378281  .00002074  00000-0  12235-2 0  8575
2 31552 098.5760 150.7255 0151065 177.8407 182.3446 14.03336993330533
0 FENGYUN 1C DEB
1 31552U 99025BYT 13284.08835204  .00002922  00000-0  17131-2 0  8583
2 31552 098.5765 153.5508 0151197 169.3439 191.0994 14.03352267330950
0 FENGYUN 1C DEB
1 31552U 99025BYT 13286.58380075  .00002901  00000-0  17003-2 0  8597
2 31552 098.5768 155.9055 0151323 162.3334 198.3178 14.03363113331300
0 FENGYUN 1C DEB
1 31552U 99025BYT 13292.43017365  .00003586  00000-0  20933-2 0  8605
2 31552 098.5773 161.4232 0151629 145.7605 215.3453 14.03400569332124
